0 ARIANE 42P+ R/B
1 22254U 92084B   13282.02848433  .00346496  48060-7  22664-2 0  2875
2 22254 006.6938 074.8210 5162886 355.2058 316.5485 05.51610869241836
0 ARIANE 42P+ R/B
1 22254U 92084B   13282.57000066  .00344434  11072-7  22351-2 0  2884
2 22254 006.6944 074.1153 5160663 356.6164 312.2595 05.52012461241869
0 ARIANE 42P+ R/B
1 22254U 92084B   13283.12009233  .00333838 -46223-7  21583-2 0  2891
2 22254 006.6943 073.3811 5158706 358.0646 325.7435 05.52355499241892
0 ARIANE 42P+ R/B
1 22254U 92084B   13283.49946755  .00321010  00000-0  16840-2 0  2906
2 22254 006.6970 072.9031 5161225 359.0155 000.2545 05.52572020240906
0 ARIANE 42P+ R/B
1 22254U 92084B   13283.51128404  .00332491 -97144-7  21397-2 0  2903
2 22254 006.6937 072.8498 5157387 359.1070 023.7684 05.52593398241924
0 ARIANE 42P+ R/B
1 22254U 92084B   13284.01634522  .00324690 -17222-6  20879-2 0  2917
2 22254 006.6940 072.1806 5155689 000.4323 308.7445 05.52883155241940
0 ARIANE 42P+ R/B
1 22254U 92084B   13285.49955087  .00291345 -41097-6  18635-2 0  2938
2 22254 006.6938 070.1967 5150842 004.3535 023.1488 05.53720343242033
0 ARIANE 42P+ R/B
1 22254U 92084B   13286.19595435  .00288763 -50743-6  18277-2 0  2944
2 22254 006.6929 069.2767 5148831 006.1859 331.8218 05.54094307242073
0 ARIANE 42P+ R/B
1 22254U 92084B   13286.78021000  .00291399 -56976-6  18539-2 0  2956
2 22254 006.6937 068.5006 5146853 007.7243 057.6307 05.54413308242108
0 ARIANE 42P+ R/B
1 22254U 92084B   13287.09373503  .00284723 -59465-6  18085-2 0  2965
2 22254 006.6938 068.0838 5145856 008.5507 323.5100 05.54587446242124
0 ARIANE 42P+ R/B
1 22254U 92084B   13287.66970400  .00303918 -62305-6  19279-2 0  2979
2 22254 006.6936 067.2964 5144013 010.0951 033.7933 05.54904689242157
0 ARIANE 42P+ R/B
1 22254U 92084B   13288.17936149  .00323628 -62908-6  20435-2 0  2984
2 22254 006.6937 066.6113 5142244 011.4479 332.2287 05.55220044242180
0 ARIANE 42P+ R/B
1 22254U 92084B   13289.64808823  .00325156 -55360-6  20414-2 0  2994
2 22254 006.6933 064.6213 5137215 015.3660 030.3254 05.56093214242269
0 ARIANE 42P+ R/B
1 22254U 92084B   13290.15708609  .00320850 -50164-6  20151-2 0  3007
2 22254 006.6934 063.9469 5135376 016.7083 329.6287 05.56404854242294
0 ARIANE 42P+ R/B
1 22254U 92084B   13290.52915075  .00245053  00000-0  14036-2 0  3019
2 22254 006.6952 063.4775 5135639 017.6631 355.0500 05.56650154242321
0 ARIANE 42P+ R/B
1 22254U 92084B   13290.54034727  .00326151 -45648-6  20375-2 0  3013
2 22254 006.6932 063.4175 5134158 017.7435 017.4997 05.56629206242313
0 ARIANE 42P+ R/B
1 22254U 92084B   13290.54372980  .00329001 -45615-6  20347-2 0  3020
2 22254 006.6938 063.4603 5134311 017.7034 024.2824 05.56635312242311
0 ARIANE 42P+ R/B
1 22254U 92084B   13292.12983793  .00320249 -24303-6  19411-2 0  3033
2 22254 006.6947 061.3424 5129152 021.9076 325.4658 05.57577668242400
0 ARIANE 42P+ R/B
1 22254U 92084B   13292.51537374  .00321024 -19092-6  19440-2 0  3040
2 22254 006.6954 060.8251 5127967 022.9316 019.5195 05.57782479242427
0 ARIANE 42P+ R/B
1 22254U 92084B   13292.70425778  .00322959 -16610-6  19510-2 0  3055
2 22254 006.6960 060.5727 5127290 023.4316 038.8638 05.57905450242437
0 ARIANE 42P+ R/B
1 22254U 92084B   13293.20813757  .00327010 -10303-6  19794-2 0  3060
2 22254 006.6957 059.8813 5125362 024.7930 331.2234 05.58227530242466
0 ARIANE 42P+ R/B
1 22254U 92084B   13293.72623957  .00332031 -44103-7  19880-2 0  3070
2 22254 006.6940 059.1735 5123723 026.1897 292.7487 05.58541300242488
0 ARIANE 42P+ R/B
1 22254U 92084B   13294.09953422  .00344536 -60749-8  20648-2 0  3087
2 22254 006.6941 058.6795 5122320 027.1767 323.5497 05.58777321242510
0 ARIANE 42P+ R/B
1 22254U 92084B   13294.48287807  .00359578  28519-7  21495-2 0  3098
2 22254 006.6939 058.1595 5120812 028.2042 014.9223 05.59042190242532
0 ARIANE 42P+ R/B
1 22254U 92084B   13294.67067557  .00363406  43727-7  21563-2 0  3108
2 22254 006.6933 057.8908 5120235 028.7240 032.9295 05.59163997242543
0 ARIANE 42P+ R/B
1 22254U 92084B   13295.75020910  .00339551  10779-6  19965-2 0  3118
2 22254 006.6932 056.4348 5116572 031.6113 047.3766 05.59816802242606
